$$SOE
2460721.500000000, A.D. 2025-Feb-15 00:00:00.0000, 2.516880746539706E+07, -4.194974969730889E+08, -3.144128875967234E+06,
2460728.500000000, A.D. 2025-Feb-22 00:00:00.0000, 3.497638849321277E+07, -4.177883544073346E+08, -3.069176022957891E+06,
2460735.500000000, A.D. 2025-Mar-01 00:00:00.0000, 4.476092564002948E+07, -4.158040804437201E+08, -2.992201473106623E+06,
2460742.500000000, A.D. 2025-Mar-08 00:00:00.0000, 5.451575522729956E+07, -4.135439257022415E+08, -2.913241458070606E+06,
2460749.500000000, A.D. 2025-Mar-15 00:00:00.0000, 6.423412422675399E+07, -4.110072408296486E+08, -2.832333573143363E+06,
2460756.500000000, A.D. 2025-Mar-22 00:00:00.0000, 7.390918548988689E+07, -4.081934804819566E+08, -2.749516583774090E+06,
2460763.500000000, A.D. 2025-Mar-29 00:00:00.0000, 8.353399440323375E+07, -4.051022098816774E+08, -2.664830543171048E+06,
2460770.500000000, A.D. 2025-Apr-05 00:00:00.0000, 9.310150730930333E+07, -4.017331108249270E+08, -2.578316994660050E+06,
2460777.500000000, A.D. 2025-Apr-12 00:00:00.0000, 1.026045797824720E+08, -3.980859870482608E+08, -2.490019073890418E+06,
2460784.500000000, A.D. 2025-Apr-19 00:00:00.0000, 1.120359645893295E+08, -3.941607698500019E+08, -2.399981565979868E+06,
2460791.500000000, A.D. 2025-Apr-26 00:00:00.0000, 1.213883096235610E+08, -3.899575241826108E+08, -2.308250959325224E+06,
2460798.500000000, A.D. 2025-May-03 00:00:00.0000, 1.306541559491583E+08, -3.854764552105778E+08, -2.214875505116761E+06,
2460805.500000000, A.D. 2025-May-10 00:00:00.0000, 1.398259360025530E+08, -3.807179153386571E+08, -2.119905284649014E+06,
2460812.500000000, A.D. 2025-May-17 00:00:00.0000, 1.488959720147965E+08, -3.756824117649652E+08, -2.023392291287094E+06,
2460819.500000000, A.D. 2025-May-24 00:00:00.0000, 1.578564748543660E+08, -3.703706146275598E+08, -1.925390547454685E+06,
2460826.500000000, A.D. 2025-May-31 00:00:00.0000, 1.666995437363118E+08, -3.647833654478804E+08, -1.825956269284874E+06,
2460833.500000000, A.D. 2025-Jun-07 00:00:00.0000, 1.754171664258144E+08, -3.589216846787432E+08, -1.725147943419650E+06,
2460840.500000000, A.D. 2025-Jun-14 00:00:00.0000, 1.840012176033371E+08, -3.527867790322323E+08, -1.623026153577000E+06,
2460847.500000000, A.D. 2025-Jun-21 00:00:00.0000, 1.924434566456930E+08, -3.463800518643326E+08, -1.519653536157325E+06,
2460854.500000000, A.D. 2025-Jun-28 00:00:00.0000, 2.007355279959643E+08, -3.397031148595650E+08, -1.415095007798120E+06,
2460861.500000000, A.D. 2025-Jul-05 00:00:00.0000, 2.088689626539573E+08, -3.327577988713939E+08, -1.309417949281737E+06,
2460868.500000000, A.D. 2025-Jul-12 00:00:00.0000, 2.168351796451854E+08, -3.255461647359575E+08, -1.202692301829532E+06,
2460875.500000000, A.D. 2025-Jul-19 00:00:00.0000, 2.246254877078962E+08, -3.180705146428694E+08, -1.094990639545351E+06,
2460882.500000000, A.D. 2025-Jul-26 00:00:00.0000, 2.322310874604344E+08, -3.103334041235607E+08, -9.863882412625700E+05,
2460889.500000000, A.D. 2025-Aug-02 00:00:00.0000, 2.396430741701456E+08, -3.023376546343091E+08, -8.769631654269397E+05,
2460896.500000000, A.D. 2025-Aug-09 00:00:00.0000, 2.468524412071766E+08, -2.940863667418995E+08, -7.667963308259249E+05,
2460903.500000000, A.D. 2025-Aug-16 00:00:00.0000, 2.538500843253174E+08, -2.855829339625600E+08, -6.559716149435192E+05,
2460910.500000000, A.D. 2025-Aug-23 00:00:00.0000, 2.606268071348920E+08, -2.768310572204194E+08, -5.445759948551059E+05,
2460917.500000000, A.D. 2025-Aug-30 00:00:00.0000, 2.671733281761676E+08, -2.678347591921993E+08, -4.326997014932483E+05,
2460924.500000000, A.D. 2025-Sep-06 00:00:00.0000, 2.734802882583792E+08, -2.585983975164397E+08, -3.204361742375940E+05,
2460931.500000000, A.D. 2025-Sep-13 00:00:00.0000, 2.795382564773364E+08, -2.491266793213008E+08, -2.078818645087183E+05,
2460938.500000000, A.D. 2025-Sep-20 00:00:00.0000, 2.853377382708156E+08, -2.394246786754624E+08, -9.513632218734920E+04,
2460945.500000000, A.D. 2025-Sep-27 00:00:00.0000, 2.908691866615936E+08, -2.294978538020979E+08, 1.769759338721633E+04,
2460952.500000000, A.D. 2025-Oct-04 00:00:00.0000, 2.961230147662152E+08, -2.193520634600698E+08, 1.305136081942320E+05,
2460959.500000000, A.D. 2025-Oct-11 00:00:00.0000, 3.010896092921538E+08, -2.089935833675061E+08, 2.432019926198572E+05,
2460966.500000000, A.D. 2025-Oct-18 00:00:00.0000, 3.057593454047863E+08, -1.984291228615147E+08, 3.556495377365053E+05,
2460973.500000000, A.D. 2025-Oct-25 00:00:00.0000, 3.101226032025939E+08, -1.876658416889921E+08, 4.677395382410288E+05,
2460980.500000000, A.D. 2025-Nov-01 00:00:00.0000, 3.141697859389066E+08, -1.767113668050362E+08, 5.793517811298668E+05,
2460987.500000000, A.D. 2025-Nov-08 00:00:00.0000, 3.178913401215459E+08, -1.655738090875375E+08, 6.903625357904658E+05,
2460994.500000000, A.D. 2025-Nov-15 00:00:00.0000, 3.212777777301240E+08, -1.542617798866473E+08, 8.006445283961445E+05,
2461001.500000000, A.D. 2025-Nov-22 00:00:00.0000, 3.243197010404338E+08, -1.427844070292681E+08, 9.100668829046488E+05,
2461008.500000000, A.D. 2025-Nov-29 00:00:00.0000, 3.270078299872175E+08, -1.311513489657709E+08, 1.018495137419388E+06,
2461015.500000000, A.D. 2025-Dec-06 00:00:00.0000, 3.293330298656762E+08, -1.193728070035882E+08, 1.125791536076084E+06,
2461022.500000000, A.D. 2025-Dec-13 00:00:00.0000, 3.312863398650983E+08, -1.074595387878546E+08, 1.231815282999188E+06,
2461029.500000000, A.D. 2025-Dec-20 00:00:00.0000, 3.328590059691188E+08, -9.542287177090029E+07, 1.336422523055732E+06,
2461036.500000000, A.D. 2025-Dec-27 00:00:00.0000, 3.340425171756725E+08, -8.327471382382552E+07, 1.439466361710157E+06,
2461043.500000000, A.D. 2026-Jan-03 00:00:00.0000, 3.348286435844753E+08, -7.102756133285545E+07, 1.540797009816967E+06,
2461050.500000000, A.D. 2026-Jan-10 00:00:00.0000, 3.352094764427440E+08, -5.869450516846023E+07, 1.640261990077518E+06,
2461057.500000000, A.D. 2026-Jan-17 00:00:00.0000, 3.351774703329017E+08, -4.628923431053103E+07, 1.737706378586397E+06,
2461064.500000000, A.D. 2026-Jan-24 00:00:00.0000, 3.347254874982966E+08, -3.382603678354624E+07, 1.832973078416288E+06,
2461071.500000000, A.D. 2026-Jan-31 00:00:00.0000, 3.338468442119634E+08, -2.131979757390410E+07, 1.925903124732483E+06,
2461078.500000000, A.D. 2026-Feb-07 00:00:00.0000, 3.325353590911425E+08, -8.785993244684393E+06, 2.016336013263019E+06,
2461085.500000000, A.D. 2026-Feb-14 00:00:00.0000, 3.307854034046681E+08, 3.759317079224694E+06, 2.104110029229597E+06,
2461092.500000000, A.D. 2026-Feb-21 00:00:00.0000, 3.285919534980354E+08, 1.629950527194960E+07, 2.189062588931786E+06,
2461099.500000000, A.D. 2026-Feb-28 00:00:00.0000, 3.259506439334728E+08, 2.881739380256837E+07, 2.271030788297253E+06,
2461106.500000000, A.D. 2026-Mar-07 00:00:00.0000, 3.228578189198161E+08, 4.129527973512058E+07, 2.349852188147033E+06,
2461113.500000000, A.D. 2026-Mar-14 00:00:00.0000, 3.193105843775037E+08, 5.371496109361248E+07, 2.425365389288038E+06,
2461120.500000000, A.D. 2026-Mar-21 00:00:00.0000, 3.153068619312516E+08, 6.605776876095472E+07, 2.497410469045687E+06,
2461127.500000000, A.D. 2026-Mar-28 00:00:00.0000, 3.108454422890073E+08, 7.830460517178541E+07, 2.565829547138553E+06,
2461134.500000000, A.D. 2026-Apr-04 00:00:00.0000, 3.059260368260413E+08, 9.043598900469805E+07, 2.630467456601519E+06,
2461141.500000000, A.D. 2026-Apr-11 00:00:00.0000, 3.005493270178594E+08, 1.024321056156749E+08, 2.691172463002965E+06,
2461148.500000000, A.D. 2026-Apr-18 00:00:00.0000, 2.947170112011356E+08, 1.142728632330753E+08, 2.747797013001479E+06,
2461155.500000000, A.D. 2026-Apr-25 00:00:00.0000, 2.884318479890823E+08, 1.259379548743196E+08, 2.800198504229888E+06,
2461162.500000000, A.D. 2026-May-02 00:00:00.0000, 2.816976956266859E+08, 1.374069258098478E+08, 2.848240065400720E+06,
2461169.500000000, A.D. 2026-May-09 00:00:00.0000, 2.745195466542758E+08, 1.486592462645593E+08, 2.891791323223069E+06,
2461176.500000000, A.D. 2026-May-16 00:00:00.0000, 2.669035575062199E+08, 1.596743891436870E+08, 2.930729125192024E+06,
2461183.500000000, A.D. 2026-May-23 00:00:00.0000, 2.588570723595491E+08, 1.704319133366800E+08, 2.964938287872225E+06,
2461190.500000000, A.D. 2026-May-30 00:00:00.0000, 2.503886384422055E+08, 1.809115523410453E+08, 2.994312578502014E+06,
2461197.500000000, A.D. 2026-Jun-06 00:00:00.0000, 2.415080118417579E+08, 1.910933042573555E+08, 3.018755683702275E+06,
2461204.500000000, A.D. 2026-Jun-13 00:00:00.0000, 2.322261569213824E+08, 2.009575225606121E+08, 3.038181834916428E+06,
2461211.500000000, A.D. 2026-Jun-20 00:00:00.0000, 2.225552383590553E+08, 2.104850096751244E+08, 3.052516364483386E+06,
2461218.500000000, A.D. 2026-Jun-27 00:00:00.0000, 2.125086037380741E+08, 2.196571120342501E+08, 3.061696310221240E+06,
2461225.500000000, A.D. 2026-Jul-04 00:00:00.0000, 2.021007564465318E+08, 2.284558148021587E+08, 3.065670995389029E+06,
2461232.500000000, A.D. 2026-Jul-11 00:00:00.0000, 1.913473190389471E+08, 2.368638350250295E+08, 3.064402540451929E+06,
2461239.500000000, A.D. 2026-Jul-18 00:00:00.0000, 1.802649872033044E+08, 2.448647121060516E+08, 3.057866291405857E+06,
2461246.500000000, A.D. 2026-Jul-25 00:00:00.0000, 1.688714745667804E+08, 2.524428944692116E+08, 3.046051154773012E+06,
2461253.500000000, A.D. 2026-Aug-01 00:00:00.0000, 1.571854487580689E+08, 2.595838212455001E+08, 3.028959824291080E+06,
2461260.500000000, A.D. 2026-Aug-08 00:00:00.0000, 1.452264594701799E+08, 2.662739978742406E+08, 3.006608871517032E+06,
2461267.500000000, A.D. 2026-Aug-15 00:00:00.0000, 1.330148596223329E+08, 2.725010650730850E+08, 2.979028695385724E+06,
2461274.500000000, A.D. 2026-Aug-22 00:00:00.0000, 1.205717196890414E+08, 2.782538614932951E+08, 2.946263497368976E+06,
2461281.500000000, A.D. 2026-Aug-29 00:00:00.0000, 1.079187338507134E+08, 2.835224778875732E+08, 2.908371379371136E+06,
2461288.500000000, A.D. 2026-Sep-05 00:00:00.0000, 9.507812113966061E+07, 2.882982992794405E+08, 2.865424137663200E+06,
$$EOE